[{"OBJECT_NAME":"IRIDIUM 106","OBJECT_ID":"2017-003A","EPOCH":"2026-03-04T03:55:38.191872","MEAN_MOTION":14.3421841,"ECCENTRICITY":0.0001966,"INCLINATION":86.399,"RA_OF_ASC_NODE":132.4699,"ARG_OF_PERICENTER":104.7203,"MEAN_ANOMALY":255.4211,"EPHEMERIS_TYPE":0,"CLASSIFICATION_TYPE":"U","NORAD_CAT_ID":41917,"ELEMENT_SET_NO":999,"REV_AT_EPOCH":47815,"BSTAR":3.7618e-5,"MEAN_MOTION_DOT":1.25e-6,"MEAN_MOTION_DDOT":0},{"OBJECT_NAME":"IRIDIUM 103","OBJECT_ID":"2017-003B","EPOCH":"2026-03-04T03:37:22.249344","MEAN_MOTION":14.34217462,"ECCENTRICITY":0.0002158,"INCLINATION":86.3988,"RA_OF_ASC_NODE":132.3754,"ARG_OF_PERICENTER":87.0861,"MEAN_ANOMALY":273.0582,"EPHEMERIS_TYPE":0,"CLASSIFICATION_TYPE":"U","NORAD_CAT_ID":41918,"ELEMENT_SET_NO":999,"REV_AT_EPOCH":47817,"BSTAR":4.6988e-5,"MEAN_MOTION_DOT":1.51e-6,"MEAN_MOTION_DDOT":0},{"OBJECT_NAME":"IRIDIUM 109","OBJECT_ID":"2017-003C","EPOCH":"2026-03-04T03:46:30.262944","MEAN_MOTION":14.34217886,"ECCENTRICITY":0.0002155,"INCLINATION":86.3992,"RA_OF_ASC_NODE":132.4306,"ARG_OF_PERICENTER":95.3275,"MEAN_ANOMALY":264.8167,"EPHEMERIS_TYPE":0,"CLASSIFICATION_TYPE":"U","NORAD_CAT_ID":41919,"ELEMENT_SET_NO":999,"REV_AT_EPOCH":47814,"BSTAR":1.1028e-5,"MEAN_MOTION_DOT":5.1e-7,"MEAN_MOTION_DDOT":0},{"OBJECT_NAME":"IRIDIUM 102","OBJECT_ID":"2017-003D","EPOCH":"2026-03-04T03:00:50.224320","MEAN_MOTION":14.3421852,"ECCENTRICITY":0.0002263,"INCLINATION":86.3989,"RA_OF_ASC_NODE":132.3697,"ARG_OF_PERICENTER":96.9872,"MEAN_ANOMALY":263.1582,"EPHEMERIS_TYPE":0,"CLASSIFICATION_TYPE":"U","NORAD_CAT_ID":41920,"ELEMENT_SET_NO":999,"REV_AT_EPOCH":47822,"BSTAR":5.4041e-5,"MEAN_MOTION_DOT":1.71e-6,"MEAN_MOTION_DDOT":0},{"OBJECT_NAME":"IRIDIUM 105","OBJECT_ID":"2017-003E","EPOCH":"2026-03-04T03:53:00.551616","MEAN_MOTION":14.34398788,"ECCENTRICITY":0.0002264,"INCLINATION":86.3925,"RA_OF_ASC_NODE":100.8075,"ARG_OF_PERICENTER":92.8346,"MEAN_ANOMALY":267.3109,"EPHEMERIS_TYPE":0,"CLASSIFICATION_TYPE":"U","NORAD_CAT_ID":41921,"ELEMENT_SET_NO":999,"REV_AT_EPOCH":48008,"BSTAR":0.00012271,"MEAN_MOTION_DOT":3.65e-6,"MEAN_MOTION_DDOT":0},{"OBJECT_NAME":"IRIDIUM 104","OBJECT_ID":"2017-003F","EPOCH":"2026-03-04T03:19:06.302496","MEAN_MOTION":14.34218288,"ECCENTRICITY":0.0002373,"INCLINATION":86.3991,"RA_OF_ASC_NODE":132.4054,"ARG_OF_PERICENTER":88.6586,"MEAN_ANOMALY":271.4881,"EPHEMERIS_TYPE":0,"CLASSIFICATION_TYPE":"U","NORAD_CAT_ID":41922,"ELEMENT_SET_NO":999,"REV_AT_EPOCH":47821,"BSTAR":3.2322e-5,"MEAN_MOTION_DOT":1.1e-6,"MEAN_MOTION_DDOT":0},{"OBJECT_NAME":"IRIDIUM 114","OBJECT_ID":"2017-003G","EPOCH":"2026-03-04T03:28:14.179584","MEAN_MOTION":14.34218933,"ECCENTRICITY":0.0002221,"INCLINATION":86.3991,"RA_OF_ASC_NODE":132.3864,"ARG_OF_PERICENTER":89.8933,"MEAN_ANOMALY":270.2517,"EPHEMERIS_TYPE":0,"CLASSIFICATION_TYPE":"U","NORAD_CAT_ID":41923,"ELEMENT_SET_NO":999,"REV_AT_EPOCH":47819,"BSTAR":5.9134e-5,"MEAN_MOTION_DOT":1.85e-6,"MEAN_MOTION_DDOT":0},{"OBJECT_NAME":"IRIDIUM 108","OBJECT_ID":"2017-003H","EPOCH":"2026-03-04T04:08:58.407072","MEAN_MOTION":14.34219246,"ECCENTRICITY":0.0002315,"INCLINATION":86.3917,"RA_OF_ASC_NODE":100.6914,"ARG_OF_PERICENTER":97.032,"MEAN_ANOMALY":263.1139,"EPHEMERIS_TYPE":0,"CLASSIFICATION_TYPE":"U","NORAD_CAT_ID":41924,"ELEMENT_SET_NO":999,"REV_AT_EPOCH":48005,"BSTAR":0.00012393,"MEAN_MOTION_DOT":3.67e-6,"MEAN_MOTION_DDOT":0},{"OBJECT_NAME":"IRIDIUM 112","OBJECT_ID":"2017-003J","EPOCH":"2026-03-04T03:09:58.295808","MEAN_MOTION":14.34217948,"ECCENTRICITY":0.0002333,"INCLINATION":86.3986,"RA_OF_ASC_NODE":132.2386,"ARG_OF_PERICENTER":94.2002,"MEAN_ANOMALY":265.9461,"EPHEMERIS_TYPE":0,"CLASSIFICATION_TYPE":"U","NORAD_CAT_ID":41925,"ELEMENT_SET_NO":999,"REV_AT_EPOCH":47821,"BSTAR":2.44e-5,"MEAN_MOTION_DOT":8.8e-7,"MEAN_MOTION_DDOT":0},{"OBJECT_NAME":"IRIDIUM 111","OBJECT_ID":"2017-003K","EPOCH":"2026-03-04T04:32:10.267008","MEAN_MOTION":14.3421807,"ECCENTRICITY":0.0002142,"INCLINATION":86.3988,"RA_OF_ASC_NODE":132.2829,"ARG_OF_PERICENTER":94.3911,"MEAN_ANOMALY":265.7529,"EPHEMERIS_TYPE":0,"CLASSIFICATION_TYPE":"U","NORAD_CAT_ID":41926,"ELEMENT_SET_NO":999,"REV_AT_EPOCH":47820,"BSTAR":3.2411e-5,"MEAN_MOTION_DOT":1.11e-6,"MEAN_MOTION_DDOT":0},{"OBJECT_NAME":"IRIDIUM 113","OBJECT_ID":"2017-039A","EPOCH":"2026-03-03T19:40:59.165472","MEAN_MOTION":14.34218151,"ECCENTRICITY":0.0002273,"INCLINATION":86.402,"RA_OF_ASC_NODE":6.2004,"ARG_OF_PERICENTER":82.0455,"MEAN_ANOMALY":278.0998,"EPHEMERIS_TYPE":0,"CLASSIFICATION_TYPE":"U","NORAD_CAT_ID":42803,"ELEMENT_SET_NO":999,"REV_AT_EPOCH":45608,"BSTAR":1.9655e-5,"MEAN_MOTION_DOT":7.5e-7,"MEAN_MOTION_DDOT":0},{"OBJECT_NAME":"IRIDIUM 123","OBJECT_ID":"2017-039B","EPOCH":"2026-03-03T20:40:42.875904","MEAN_MOTION":14.34217616,"ECCENTRICITY":0.0002013,"INCLINATION":86.3965,"RA_OF_ASC_NODE":37.6402,"ARG_OF_PERICENTER":82.9186,"MEAN_ANOMALY":277.2238,"EPHEMERIS_TYPE":0,"CLASSIFICATION_TYPE":"U","NORAD_CAT_ID":42804,"ELEMENT_SET_NO":999,"REV_AT_EPOCH":45485,"BSTAR":1.5133e-5,"MEAN_MOTION_DOT":6.2e-7,"MEAN_MOTION_DDOT":0},{"OBJECT_NAME":"IRIDIUM 120","OBJECT_ID":"2017-039C","EPOCH":"2026-03-03T19:31:51.069792","MEAN_MOTION":14.3421867,"ECCENTRICITY":0.0002107,"INCLINATION":86.4017,"RA_OF_ASC_NODE":5.9998,"ARG_OF_PERICENTER":90.4379,"MEAN_ANOMALY":269.7058,"EPHEMERIS_TYPE":0,"CLASSIFICATION_TYPE":"U","NORAD_CAT_ID":42805,"ELEMENT_SET_NO":999,"REV_AT_EPOCH":45607,"BSTAR":9.3549e-5,"MEAN_MOTION_DOT":2.82e-6,"MEAN_MOTION_DDOT":0},{"OBJECT_NAME":"IRIDIUM 115","OBJECT_ID":"2017-039D","EPOCH":"2026-03-03T19:19:13.870560","MEAN_MOTION":14.43284167,"ECCENTRICITY":0.0001859,"INCLINATION":86.4548,"RA_OF_ASC_NODE":6.1172,"ARG_OF_PERICENTER":84.8323,"MEAN_ANOMALY":275.309,"EPHEMERIS_TYPE":0,"CLASSIFICATION_TYPE":"U","NORAD_CAT_ID":42806,"ELEMENT_SET_NO":999,"REV_AT_EPOCH":45906,"BSTAR":0.00015768,"MEAN_MOTION_DOT":5.51e-6,"MEAN_MOTION_DDOT":0},{"OBJECT_NAME":"IRIDIUM 118","OBJECT_ID":"2017-039E","EPOCH":"2026-03-03T11:23:34.792800","MEAN_MOTION":14.34217738,"ECCENTRICITY":0.0002236,"INCLINATION":86.396,"RA_OF_ASC_NODE":37.8005,"ARG_OF_PERICENTER":85.5507,"MEAN_ANOMALY":274.5944,"EPHEMERIS_TYPE":0,"CLASSIFICATION_TYPE":"U","NORAD_CAT_ID":42807,"ELEMENT_SET_NO":999,"REV_AT_EPOCH":45479,"BSTAR":4.0080851e-5,"MEAN_MOTION_DOT":1.32e-6,"MEAN_MOTION_DDOT":0},{"OBJECT_NAME":"IRIDIUM 117","OBJECT_ID":"2017-039F","EPOCH":"2026-03-03T20:13:18.828192","MEAN_MOTION":14.34218066,"ECCENTRICITY":0.0002041,"INCLINATION":86.3963,"RA_OF_ASC_NODE":37.6054,"ARG_OF_PERICENTER":84.0125,"MEAN_ANOMALY":276.1304,"EPHEMERIS_TYPE":0,"CLASSIFICATION_TYPE":"U","NORAD_CAT_ID":42808,"ELEMENT_SET_NO":999,"REV_AT_EPOCH":45487,"BSTAR":1.4954e-5,"MEAN_MOTION_DOT":6.2e-7,"MEAN_MOTION_DDOT":0},{"OBJECT_NAME":"IRIDIUM 126","OBJECT_ID":"2017-039G","EPOCH":"2026-03-03T20:49:50.898144","MEAN_MOTION":14.34217606,"ECCENTRICITY":0.0002071,"INCLINATION":86.396,"RA_OF_ASC_NODE":37.6445,"ARG_OF_PERICENTER":82.2594,"MEAN_ANOMALY":277.8837,"EPHEMERIS_TYPE":0,"CLASSIFICATION_TYPE":"U","NORAD_CAT_ID":42809,"ELEMENT_SET_NO":999,"REV_AT_EPOCH":45485,"BSTAR":-5.4475e-6,"MEAN_MOTION_DOT":5.0e-8,"MEAN_MOTION_DDOT":0}]
