IRIDIUM 106             
1 41917U 17003A   26063.16363648  .00000125  00000+0  37618-4 0  9993
2 41917  86.3990 132.4699 0001966 104.7203 255.4211 14.34218410478155
IRIDIUM 103             
1 41918U 17003B   26063.15095196  .00000151  00000+0  46988-4 0  9992
2 41918  86.3988 132.3754 0002158  87.0861 273.0582 14.34217462478176
IRIDIUM 109             
1 41919U 17003C   26063.15729471  .00000051  00000+0  11028-4 0  9999
2 41919  86.3992 132.4306 0002155  95.3275 264.8167 14.34217886478148
IRIDIUM 102             
1 41920U 17003D   26063.12558130  .00000171  00000+0  54041-4 0  9995
2 41920  86.3989 132.3697 0002263  96.9872 263.1582 14.34218520478226
IRIDIUM 105             
1 41921U 17003E   26063.16181194  .00000365  00000+0  12271-3 0  9995
2 41921  86.3925 100.8075 0002264  92.8346 267.3109 14.34398788480082
IRIDIUM 104             
1 41922U 17003F   26063.13826739  .00000110  00000+0  32322-4 0  9992
2 41922  86.3991 132.4054 0002373  88.6586 271.4881 14.34218288478215
IRIDIUM 114             
1 41923U 17003G   26063.14460856  .00000185  00000+0  59134-4 0  9990
2 41923  86.3991 132.3864 0002221  89.8933 270.2517 14.34218933478192
IRIDIUM 108             
1 41924U 17003H   26063.17289823  .00000367  00000+0  12393-3 0  9994
2 41924  86.3917 100.6914 0002315  97.0320 263.1139 14.34219246480057
IRIDIUM 112             
1 41925U 17003J   26063.13192472  .00000088  00000+0  24400-4 0  9997
2 41925  86.3986 132.2386 0002333  94.2002 265.9461 14.34217948478214
IRIDIUM 111             
1 41926U 17003K   26063.18900772  .00000111  00000+0  32411-4 0  9991
2 41926  86.3988 132.2829 0002142  94.3911 265.7529 14.34218070478206
IRIDIUM 113             
1 42803U 17039A   26062.82012923  .00000075  00000+0  19655-4 0  9991
2 42803  86.4020   6.2004 0002273  82.0455 278.0998 14.34218151456085
IRIDIUM 123             
1 42804U 17039B   26062.86160736  .00000062  00000+0  15133-4 0  9995
2 42804  86.3965  37.6402 0002013  82.9186 277.2238 14.34217616454851
IRIDIUM 120             
1 42805U 17039C   26062.81378553  .00000282  00000+0  93549-4 0  9990
2 42805  86.4017   5.9998 0002107  90.4379 269.7058 14.34218670456074
IRIDIUM 115             
1 42806U 17039D   26062.80502165  .00000551  00000+0  15768-3 0  9993
2 42806  86.4548   6.1172 0001859  84.8323 275.3090 14.43284167459065
IRIDIUM 118             
1 42807U 17039E   26062.47470825  .00000132  00000+0  40081-4 0  9996
2 42807  86.3960  37.8005 0002236  85.5507 274.5944 14.34217738454795
IRIDIUM 117             
1 42808U 17039F   26062.84257903  .00000062  00000+0  14954-4 0  9990
2 42808  86.3963  37.6054 0002041  84.0125 276.1304 14.34218066454877
IRIDIUM 126             
1 42809U 17039G   26062.86795021  .00000005  00000+0 -54475-5 0  9992
2 42809  86.3960  37.6445 0002071  82.2594 277.8837 14.34217606454858
